OBJECT_NAME,OBJECT_ID,EPOCH,MEAN_MOTION,ECCENTRICITY,INCLINATION,RA_OF_ASC_NODE,ARG_OF_PERICENTER,MEAN_ANOMALY,EPHEMERIS_TYPE,CLASSIFICATION_TYPE,NORAD_CAT_ID,ELEMENT_SET_NO,REV_AT_EPOCH,BSTAR,MEAN_MOTION_DOT,MEAN_MOTION_DDOT
ONEWEB-0639,2023-029H,2026-07-06T08:45:52.197408,13.19725457,.0002238,87.9186,301.1563,126.0602,234.0738,0,U,55803,999,16143,-.11065035E-3,-.31E-6,0
ONEWEB-0640,2023-029J,2026-07-06T15:50:57.225120,13.14501348,.0001361,87.8963,285.8607,110.6783,249.4493,0,U,55804,999,16197,.23648E-4,.22E-6,0
ONEWEB-0641,2023-029K,2026-07-06T08:39:03.235104,13.19726074,.00020067,87.9192,301.1479,105.4715,254.6639,0,U,55805,999,16144,.17047994E-3,.81E-6,0
ONEWEB-0642,2023-029L,2026-07-06T08:32:14.869824,13.19725903,.00024219,87.9186,301.1595,120.1179,240.0194,0,U,55806,999,16143,.22237183E-3,.102E-5,0
ONEWEB-0643,2023-029M,2026-07-06T16:57:10.863072,13.14502396,.00025,87.8960,285.8389,112.5225,247.6169,0,U,55807,999,16195,.10153E-3,.5E-6,0
ONEWEB-0644,2023-029N,2026-07-06T17:31:18.270912,13.19725567,.0002167,87.9183,301.0860,109.4035,250.7332,0,U,55808,999,16148,.11323E-3,.58E-6,0
ONEWEB-0645,2023-029P,2026-07-06T07:08:05.212320,13.19725484,.00017556,87.9183,301.1689,113.7594,246.3723,0,U,55809,999,16142,.51513005E-4,.34E-6,0
ONEWEB-0646,2023-029Q,2026-07-06T20:17:20.095008,13.19726434,.0002137,87.9184,301.0601,107.7174,252.4192,0,U,55810,999,16148,-.28827E-4,.1E-7,0
ONEWEB-0648,2023-029R,2026-07-06T16:11:30.473664,13.14502922,.0002001,87.8972,285.8206,126.9665,233.1648,0,U,55811,999,16195,-.35917E-3,-.12E-5,0
ONEWEB-0649,2023-029S,2026-07-06T08:09:29.086272,13.19726352,.00019022,87.9184,301.1586,108.7310,251.4029,0,U,55812,999,16145,.16012038E-3,.77E-6,0
ONEWEB-0650,2023-029T,2026-07-06T17:08:32.529696,13.19726261,.0002257,87.9183,301.0866,115.9534,244.1832,0,U,55813,999,16147,.15012E-3,.73E-6,0
ONEWEB-0652,2023-029U,2026-07-06T17:33:42.893280,13.14502328,.0002059,87.8972,285.8161,96.6732,263.4632,0,U,55814,999,16193,.36043E-3,.146E-5,0
ONEWEB-0653,2023-029V,2026-07-06T17:10:52.144320,13.14501908,.0001933,87.8970,285.8172,100.1767,259.9580,0,U,55815,999,16196,.41374E-3,.166E-5,0
ONEWEB-0654,2023-029W,2026-07-06T17:04:00.996096,13.14501749,.000192,87.8971,285.8144,89.3960,270.7389,0,U,55816,999,16198,.38171E-3,.154E-5,0
ONEWEB-0656,2023-029X,2026-07-06T16:10:23.556000,13.20769661,.0002045,87.9195,270.5474,87.1754,272.9614,0,U,55817,999,16372,-.38093E-4,-.3E-7,0
ONEWEB-0657,2023-029Y,2026-07-06T07:55:51.260160,13.19726782,.0002545,87.9183,301.1615,90.4379,269.7045,0,U,55818,999,16143,.29757606E-3,.132E-5,0
ONEWEB-0658,2023-029Z,2026-07-06T16:54:54.887616,13.19725859,.0002173,87.9193,301.0643,110.2135,249.9232,0,U,55819,999,16149,-.3051E-4,.1E-7,0
ONEWEB-0660,2023-029AA,2026-07-06T16:32:02.528160,13.14502046,.0001774,87.8982,285.8140,108.0804,252.0519,0,U,55820,999,16196,-.5108E-3,-.177E-5,0
ONEWEB-0661,2023-029AB,2026-07-06T17:22:18.183648,13.14502350,.0001729,87.8964,285.8482,105.5166,254.6155,0,U,55821,999,16195,.47863E-3,.19E-5,0
ONEWEB-0662,2023-029AC,2026-07-06T16:22:55.462368,13.14501921,.0001789,87.8961,285.8624,107.4866,252.6460,0,U,55822,999,16199,-.56496E-3,-.197E-5,0
ONEWEB-0663,2023-029AD,2026-07-06T16:56:51.291744,13.20870986,.0001982,87.9195,270.6120,111.4647,248.6698,0,U,55823,999,16372,.77895E-4,.45E-6,0
ONEWEB-0664,2023-029AE,2026-07-06T15:51:02.168928,13.20771357,.0001557,87.9180,270.6004,97.0286,263.1025,0,U,55824,999,16371,.17032E-3,.82E-6,0
ONEWEB-0665,2023-029AF,2026-07-06T17:17:43.990656,13.14502344,.0001873,87.8963,285.8297,110.7455,249.3875,0,U,55825,999,16197,.43153E-3,.173E-5,0
ONEWEB-0666,2023-029AG,2026-07-06T17:30:24.632064,13.20772356,.0002666,87.9181,270.5768,90.5586,269.5853,0,U,55826,999,16373,.17641E-3,.85E-6,0
ONEWEB-0667,2023-029AH,2026-07-06T17:23:08.304288,13.20772972,.0001923,87.9197,270.5385,102.3937,257.7411,0,U,55827,999,16372,.57251E-4,.36E-6,0
ONEWEB-0669,2023-029AJ,2026-07-06T17:15:51.383808,13.20772930,.0001836,87.9188,270.5494,84.3156,275.8186,0,U,55828,999,16372,.1021E-3,.54E-6,0
ONEWEB-0670,2023-029AK,2026-07-06T16:45:45.364608,13.14501690,.0001573,87.8959,285.8514,102.1191,258.0115,0,U,55829,999,16199,-.34935E-3,-.117E-5,0
ONEWEB-0671,2023-029AL,2026-07-06T16:48:04.664736,13.19725926,.0001826,87.9185,301.0893,104.0526,256.0809,0,U,55830,999,16147,-.26088E-4,.3E-7,0
ONEWEB-0672,2023-029AM,2026-07-06T17:08:34.616256,13.20770280,.0002202,87.9190,270.5439,92.6503,267.4883,0,U,55831,999,16372,-.43139E-3,-.162E-5,0
ONEWEB-0673,2023-029AN,2026-07-06T16:15:05.319360,13.19723976,.0001832,87.9192,301.0868,103.1961,256.9376,0,U,55832,999,16147,-.35464E-3,-.129E-5,0
